#aV2023  9  1  0  0  0.00000000     288 DD+AD WGS84 FIT  NGA
## 2277 432000.00000000   300.00000000 60188 0.0000000000000
+   32     1  2  3  4  5  6  7  8  9 10 11 12 13 14 15 16 17
+         18 19 20 21 22 23 24 25 26 27 28 29 30 31 32  0  0
+          0  0  0  0  0  0  0  0  0  0  0  0  0  0  0  0  0
+          0  0  0  0  0  0  0  0  0  0  0  0  0  0  0  0  0
+          0  0  0  0  0  0  0  0  0  0  0  0  0  0  0  0  0
++         2  2  2  2  2  2  2  2  2  2  2  2  2  2  2  2  2
++         2  2  2  2  2  2  2  2  2  2  2  2  2  2  2  0  0
++         0  0  0  0  0  0  0  0  0  0  0  0  0  0  0  0  0
++         0  0  0  0  0  0  0  0  0  0  0  0  0  0  0  0  0
++         0  0  0  0  0  0  0  0  0  0  0  0  0  0  0  0  0
%c cc cc ccc ccc cccc cccc cccc cccc ccccc ccccc ccccc ccccc
%c cc cc ccc ccc cccc cccc cccc cccc ccccc ccccc ccccc ccccc
%f  0.0000000  0.000000000  0.00000000000  0.000000000000000
%f  0.0000000  0.000000000  0.00000000000  0.000000000000000
%i    0    0    0    0      0      0      0      0         0
%i    0    0    0    0      0      0      0      0         0
/*      NGA, ST. LOUIS,MO.                                  
/*   EPHEMERIS COMPUTED FROM 2 DAYS OF DATA                 
/*   EPOCHA v8 SMOOTHER                                     
/*   G2139 IERS2010 SATIGS SATAPC                           
*  2023  9  1 21 35  0.00000000
P  1 -16386.755052  -4996.017057  20052.593019    166.630108                    
V  1  -9513.706913 -24264.068182 -13264.623258     -0.011188                    
P  2 -18609.151941 -10591.124905  16325.177723   -558.847313                    
V  2  -8148.124425 -18021.978243 -21487.251396      0.043199                    
P  3 -19060.869209   6801.258264  16994.128182   -157.637528                    
V  3  11658.312437 -18556.493576  20434.800064      0.196033                    
P  4 -26124.117456    -77.224002  -5131.450855    143.445946                    
V  4  -6083.040647  -3438.645570  30848.382109      0.113107                    
P  5  12499.921413   8589.675370 -21987.318236   -141.087802                    
V  5 -15155.722960  22897.012565    430.647541     -0.014533                    
P  6   4320.657019  24637.005429   8858.147414    557.432534                    
V  6  -6079.032194  -9523.641099  29747.565772     -0.061254                    
P  7 -10215.554868  12804.481148 -20340.850645     79.083043                    
V  7 -12078.293161 -24232.072471  -9453.851790     -0.106113                    
P  8 -25375.654791  -6166.436211  -5976.461461   -140.112490                    
V  8   7581.169293  -1904.069598 -30213.141985     -0.019331                    
P  9 -21893.056823   7495.743776 -13158.262427    -71.100863                    
V  9 -16323.497898  -3645.285540  25191.516490      0.100788                    
P 10   9313.204999 -23088.105987   8955.262526    -51.678003                    
V 10   8381.806912  -7748.723659 -29590.974789     -0.015043                    
P 11  12470.400347  22976.572939  -4826.372363   -348.453092                    
V 11   -169.987430   6641.359060  31048.906919     -0.179486                    
P 12  18425.581712  -1705.706412  18755.014599   -419.862691                    
V 12 -14565.152444  19633.781454  15936.954999     -0.044037                    
P 13  19690.044306  13449.653481 -12113.180096    567.408273                    
V 13 -14998.379124  -1788.577056 -26583.305516      0.046144                    
P 14 -12407.929660  22695.347369   5653.234583    172.136414                    
V 14  -6988.094694   3695.977958 -30457.761550      0.114971                    
P 15  25980.454174   3211.880310  -5682.850982     73.435097                    
V 15  -6466.262487   3534.151747 -29874.189821      0.036524                    
P 16  -8116.386681 -13534.332543 -21610.842869   -460.206798                    
V 16  18099.287915 -19749.877516   6095.876379      0.053019                    
P 17  -6895.112956  13990.114622  21944.796509    723.411464                    
V 17 -26360.924196  -4759.636332  -5247.251744      0.003877                    
P 18   8446.102104 -15078.274339 -20114.106859   -403.044928                    
V 18  10927.273267  23128.856978 -12919.917194     -0.128956                    
P 19   2687.306941  15433.054549  21292.889346    365.726512                    
V 19 -26904.281922  -5352.485878   6880.022217      0.051787                    
P 20   5419.755492  18559.719546 -18252.726620    414.092014                    
V 20 -11701.131017  20121.287937  16764.233416     -0.020097                    
P 21 -18861.021523 -13363.768140  14367.651788    149.714520                    
V 21  -7063.921337 -15528.782862 -23741.191947     -0.006861                    
P 22  -7469.472500  22302.098166  13062.218443    130.094607                    
V 22 -11798.922340  10583.662250 -25467.397531     -0.074300                    
P 23  16749.060563 -20172.621229  -3606.495228     62.682973                    
V 23   -542.858511   5201.464384 -31740.754536      0.050161                    
P 24  18794.594128   8588.110181  16537.464520   -307.315670                    
V 24   8673.926319  19930.733881 -19342.767513     -0.110156                    
P 25  19162.135668 -15250.169562   9626.201332    465.475570                    
V 25  -4869.905417  12200.580307  28368.526395      0.020854                    
P 26   -629.445267 -21226.080801 -15858.135146    230.464648                    
V 26  12917.034624 -15683.336238  20985.014580     -0.016825                    
P 27 -17312.074501 -12869.745979 -16016.037267    -32.340624                    
V 27  19748.135648    503.081773 -21697.730584     -0.064731                    
P 28  -3639.482227 -24134.030766  10458.188926     -4.378478                    
V 28   8030.726864  10892.597027  27872.791304     -0.044693                    
P 29  22400.652411  -5154.250180 -13446.501084   -608.756900                    
V 29  16328.964331   4805.932853  25346.990418     -0.005722                    
P 30  -3136.223534  21184.823298 -15421.511799   -491.494991                    
V 30 -10473.363228 -17222.852295 -21622.984165      0.032576                    
P 31  -9994.072490 -24353.025318    265.307407   -222.758348                    
V 31   3338.878086   -789.945120  31894.540741     -0.005662                    
P 32   1369.566776 -15244.000883  21885.355143   -550.919422                    
V 32  27230.503252   2705.225991    -17.663830     -0.064005                    
EOF
